STARLINK-5458           
1 54764U 22175G   25083.50208814  .00029915  00000+0  18887-2 0  9998
2 54764  53.2150 176.1033 0001706 100.9331 259.1854 15.08859251127059
STARLINK-5471           
1 54766U 22175J   25083.50849545 -.00000975  00000+0 -43149-4 0  9990
2 54766  53.2165 176.1406 0001496  89.6206 270.4958 15.08836663127054
STARLINK-5472           
1 54767U 22175K   25083.50480594 -.00001641  00000+0 -84998-4 0  9994
2 54767  53.2170 176.1161 0001679  91.8945 268.2239 15.08849147127055
STARLINK-5444           
1 54768U 22175L   25082.94600476 -.00000755  00000+0 -29310-4 0  9997
2 54768  53.2168 164.0580 0002175  49.3171 310.8010 15.08837216125014
STARLINK-5448           
1 54770U 22175N   25083.45653652  .00001973  00000+0  14200-3 0  9993
2 54770  53.2162 161.5617 0001679  88.7580 271.3605 15.08839307127255
STARLINK-5451           
1 54771U 22175P   25083.62117036  .00005814  00000+0  38302-3 0  9991
2 54771  53.2163 170.4391 0001533  82.6220 277.4947 15.08847950127145
STARLINK-5452           
1 54772U 22175Q   25083.45285331  .00021531  00000+0  13673-2 0  9994
2 54772  53.2153 161.5369 0000807 101.3790 258.7293 15.08825855127253
STARLINK-5453           
1 54773U 22175R   25083.49744562  .00026534  00000+0  16782-2 0  9997
2 54773  53.2154 176.0708 0001526 100.5983 259.5181 15.08856698127059
STARLINK-5454           
1 54774U 22175S   25082.94495741  .00011637  00000+0  74838-3 0  9994
2 54774  53.2152 163.3557 0001137  99.9895 260.1226 15.08822259125029
STARLINK-5465           
1 54775U 22175T   25083.49376191  .00023951  00000+0  15177-2 0  9995
2 54775  53.2150 176.0477 0001001  78.1286 281.9818 15.08842933127057
STARLINK-5470           
1 54776U 22175U   25083.53788328  .00003877  00000+0  26161-3 0  9991
2 54776  53.2167 175.6177 0001472  70.6530 289.4621 15.08831996127062
STARLINK-5468           
1 54777U 22175V   25083.55630632  .00001839  00000+0  13360-3 0  9991
2 54777  53.2156 175.7266 0001283  74.9666 285.1468 15.08839672127069
STARLINK-5450           
1 54778U 22175W   25083.51172178  .00003852  00000+0  25990-3 0  9993
2 54778  53.2152 161.1947 0001459 101.1925 258.9232 15.08848233127269
STARLINK-5447           
1 54779U 22175X   25083.58164983  .00007736  00000+0  50344-3 0  9992
2 54779  53.2162 160.9186 0001443  96.3354 263.7802 15.08850233127278
STARLINK-5449           
1 54780U 22175Y   25083.36450092  .00000036  00000+0  20353-4 0  9993
2 54780  53.2171 161.6924 0001533 104.9862 255.1300 15.08839603127241
STARLINK-5443           
1 54781U 22175Z   25083.50804236  .00000451  00000+0  46452-4 0  9992
2 54781  53.2167 161.1633 0001237  96.5157 263.5976 15.08836303127261
STARLINK-5439           
1 54783U 22175AB  25083.50434986 -.00001745  00000+0 -91544-4 0  9996
2 54783  53.2173 161.1478 0001534  89.4641 270.6527 15.08852245127260
STARLINK-5442           
1 54784U 22175AC  25083.55262167  .00004897  00000+0  32545-3 0  9996
2 54784  53.2163 175.7052 0001169  76.6652 283.4470 15.08849311127060
STARLINK-5440           
1 54785U 22175AD  25083.48593903  .00001581  00000+0  11736-3 0  9990
2 54785  53.2153 121.1153 0001350 102.9611 257.1532 15.08842988127821
STARLINK-5441           
1 54787U 22175AF  25083.54894295  .00013637  00000+0  87327-3 0  9991
2 54787  53.2173 175.6828 0000906  84.3686 275.7409 15.08839726127060
STARLINK-5399           
1 54788U 22175AG  25083.36082494  .00019563  00000+0  12438-2 0  9996
2 54788  53.2164 161.6750 0001773 111.0496 249.0686 15.08840881127245
STARLINK-5446           
1 54789U 22175AH  25083.49283290  .00005767  00000+0  38004-3 0  9997
2 54789  53.2154 145.9825 0001394  86.6291 273.4860 15.08851455127471
STARLINK-5445           
1 54790U 22175AJ  25083.35344882  .00000397  00000+0  43053-4 0  9994
2 54790  53.2154 161.6291 0001445  94.9552 265.1605 15.08839986127249
STARLINK-5425           
1 54791U 22175AK  25083.36819417 -.00000949  00000+0 -41557-4 0  9999
2 54791  53.2170 161.7219 0001286  84.9590 275.1549 15.08825807127248
STARLINK-5431           
1 54792U 22175AL  25083.54157002 -.00001057  00000+0 -48337-4 0  9999
2 54792  53.2173 175.6368 0001307  83.0658 277.0483 15.08842122127067
STARLINK-5433           
1 54793U 22175AM  25083.50159730  .00008431  00000+0  54715-3 0  9993
2 54793  53.2152 151.1876 0001379  88.7726 271.3424 15.08841976127401
STARLINK-5392           
1 54794U 22175AN  25083.58335648  .00403163  00000+0  27744-2 0  9998
2 54794  53.1840 113.7955 0009912  17.4548   1.1193 15.72875426125788
STARLINK-5436           
1 54795U 22175AP  25083.35713299  .00001340  00000+0  10224-3 0  9993
2 54795  53.2162 161.6541 0001279  91.1543 268.9595 15.08840943127249
STARLINK-5415           
1 54796U 22175AQ  25083.48223566  .00001792  00000+0  13060-3 0  9993
2 54796  53.2162 161.0107 0001673  95.5440 264.5743 15.08860060127265
STARLINK-5435           
1 54797U 22175AR  25083.49471442  .00009033  00000+0  58475-3 0  9998
2 54797  53.2149 176.0500 0001797  87.5731 272.5466 15.08848677127053
STARLINK-5420           
1 54798U 22175AS  25083.34700756 -.00000838  00000+0 -34598-4 0  9993
2 54798  53.2189 151.6301 0001310 104.3338 255.7800 15.08834148127387
STARLINK-5421           
1 54799U 22175AT  25083.49791937 -.00001785  00000+0 -94146-4 0  9998
2 54799  53.2148 151.1550 0001719  86.1925 273.9263 15.08824532127400
STARLINK-5428           
1 54800U 22175AU  25082.95739144 -.00002219  00000+0 -12140-3 0  9999
2 54800  53.2162 168.3930 0002179  73.5076 286.6156 15.08829143127112
STARLINK-5429           
1 54801U 22175AV  25083.53419058  .00002621  00000+0  18280-3 0  9990
2 54801  53.2187 175.5901 0001408  95.7864 264.3289 15.08825289127064
STARLINK-5426           
1 54802U 22175AW  25083.39020331 -.00000576  00000+0 -18078-4 0  9992
2 54802  53.2157 121.1320 0001438  95.4742 264.6414 15.08841835127810
STARLINK-5430           
1 54803U 22175AX  25083.54524491 -.00000181  00000+0  67352-5 0  9997
2 54803  53.2180 175.6435 0001394 102.9086 257.2062 15.08851012127066
STARLINK-5422           
1 54804U 22175AY  25083.46013795  .00006064  00000+0  39881-3 0  9998
2 54804  53.2163 160.8801 0001774  82.0416 278.0777 15.08837491127269
STARLINK-5417           
1 54805U 22175AZ  25083.61104309  .00023754  00000+0  15048-2 0  9991
2 54805  53.2153 160.3952 0001474 102.1652 257.9505 15.08857724127282
STARLINK-5412           
1 54806U 22175BA  25082.93759749 -.00002885  00000+0 -16327-3 0  9996
2 54806  53.2163 163.3043 0001327  99.1754 260.9389 15.08832049125020
STARLINK-5410           
1 54807U 22175BB  25082.94127684  .00011295  00000+0  72704-3 0  9999
2 54807  53.2165 163.3236 0002168  96.9448 263.1790 15.08819360125028
STARLINK-5413           
1 54808U 22175BC  25083.44503008 -.00000918  00000+0 -39587-4 0  9999
2 54808  53.2172 146.6014 0001354  91.2810 268.8337 15.08841358127463
STARLINK-5414           
1 54809U 22175BD  25083.59629227 -.00000304  00000+0 -10079-5 0  9993
2 54809  53.2174 160.3032 0001693  95.6750 264.4436 15.08852302127289
STARLINK-5408           
1 54810U 22175BE  25083.48455137  .00020398  00000+0  12955-2 0  9995
2 54810  53.2179 156.0256 0001811  98.7354 261.3844 15.08853245127334
STARLINK-5424           
1 54811U 22175BF  25083.57754816  .00015125  00000+0  96578-3 0  9998
2 54811  53.2187 155.8818 0001453 106.9608 253.1543 15.08861954127343
STARLINK-5382           
1 54820U 22177A   25083.42781601 -.00000940  00000+0 -54520-4 0  9999
2 54820  43.0004 236.8298 0001113 268.7241  91.3473 15.02533353124268
STARLINK-5385           
1 54821U 22177B   25082.48491895 -.00000376  00000+0 -12728-4 0  9995
2 54821  43.0030 241.8000 0001372 261.7154  98.3532 15.02532311124129
STARLINK-5101           
1 54822U 22177C   25083.41116694  .00001406  00000+0  11916-3 0  9991
2 54822  42.9992 236.7049 0001357 272.2646  87.8041 15.02536137124260
STARLINK-5106           
1 54823U 22177D   25082.89266381 -.00001705  00000+0 -11117-3 0  9999
2 54823  43.0016 239.6982 0001333 262.6413  97.4278 15.02533655124189
STARLINK-4643           
1 54824U 22177E   25083.42115803 -.00000827  00000+0 -46198-4 0  9994
2 54824  43.0005 236.7802 0001119 279.6112  80.4604 15.02533462124263
STARLINK-4801           
1 54825U 22177F   25082.86053125 -.00011162  00000+0 -76727-3 0  9994
2 54825  42.9956 239.4545 0006955 332.6409  27.4067 15.04643974124180
STARLINK-5107           
1 54826U 22177G   25083.47873441 -.00015885  00000+0 -11644-2 0  9996
2 54826  43.0042 236.3496 0001174 284.6477  75.4236 15.02507450124276
STARLINK-5383           
1 54827U 22177H   25083.40450801 -.00001302  00000+0 -81355-4 0  9998
2 54827  43.0042 236.6575 0001236 266.8247  93.2453 15.02531014124276
STARLINK-5381           
1 54828U 22177J   25083.53413937 -.00000692  00000+0 -36126-4 0  9999
2 54828  43.0025 235.9078 0001595 259.1018 100.9645 15.02530419124285
STARLINK-5394           
1 54830U 22177L   25083.59505688  .00000605  00000+0  59808-4 0  9997
2 54830  43.0016 235.5040 0001401 265.8295  94.2387 15.02545404124299
STARLINK-5395           
1 54831U 22177M   25082.87601758  .00000004  00000+0  15389-4 0  9992
2 54831  43.0027 239.5728 0001481 276.4696  83.5978 15.02531233123202
STARLINK-5393           
1 54832U 22177N   25083.50453925  .00003791  00000+0  29556-3 0  9991
2 54832  43.0017 223.5485 0001405 262.1599  97.9084 15.02531789124423
STARLINK-5391           
1 54833U 22177P   25082.73751501  .00000047  00000+0  18533-4 0  9992
2 54833  43.0001 240.2522 0000847 276.1004  83.9741 15.02527268124163
STARLINK-5386           
1 54834U 22177Q   25083.39452114 -.00001505  00000+0 -96363-4 0  9993
2 54834  43.0016 236.5803 0001577 264.9463  95.1199 15.02526833124276
STARLINK-5389           
1 54835U 22177R   25082.80065997 -.00001350  00000+0 -84862-4 0  9997
2 54835  43.0056 239.8699 0001337 277.4967  82.5724 15.02534172123191
